[{"OBJECT_NAME":"HAWK-11A","OBJECT_ID":"2024-247F","EPOCH":"2026-03-09T12:17:43.893312","MEAN_MOTION":15.28849427,"ECCENTRICITY":0.00054663,"INCLINATION":44.9941,"RA_OF_ASC_NODE":114.3328,"ARG_OF_PERICENTER":327.3713,"MEAN_ANOMALY":32.6832,"EPHEMERIS_TYPE":0,"CLASSIFICATION_TYPE":"U","NORAD_CAT_ID":62382,"ELEMENT_SET_NO":999,"REV_AT_EPOCH":6774,"BSTAR":0.00034106017,"MEAN_MOTION_DOT":9.457e-5,"MEAN_MOTION_DDOT":0},{"OBJECT_NAME":"STARLINK-36206","OBJECT_ID":"2025-286F","EPOCH":"2026-03-09T22:55:07.465728","MEAN_MOTION":15.30216763,"ECCENTRICITY":0.00012308,"INCLINATION":53.1588,"RA_OF_ASC_NODE":357.4837,"ARG_OF_PERICENTER":80.3556,"MEAN_ANOMALY":279.7584,"EPHEMERIS_TYPE":0,"CLASSIFICATION_TYPE":"U","NORAD_CAT_ID":66930,"ELEMENT_SET_NO":999,"REV_AT_EPOCH":1544,"BSTAR":0.0010567062,"MEAN_MOTION_DOT":0.00031085,"MEAN_MOTION_DDOT":0}]
